[{"OBJECT_NAME":"ONEWEB-0572","OBJECT_ID":"2023-004M","EPOCH":"2026-02-24T10:48:32.599584","MEAN_MOTION":13.17650394,"ECCENTRICITY":0.00020804,"INCLINATION":87.9122,"RA_OF_ASC_NODE":28.2567,"ARG_OF_PERICENTER":84.6829,"MEAN_ANOMALY":275.454,"EPHEMERIS_TYPE":0,"CLASSIFICATION_TYPE":"U","NORAD_CAT_ID":55151,"ELEMENT_SET_NO":999,"REV_AT_EPOCH":15263,"BSTAR":0.00022215553,"MEAN_MOTION_DOT":9.9e-7,"MEAN_MOTION_DDOT":0},{"OBJECT_NAME":"ONEWEB-0573","OBJECT_ID":"2023-004N","EPOCH":"2026-02-24T19:36:40.114944","MEAN_MOTION":13.18685121,"ECCENTRICITY":0.00026436,"INCLINATION":87.9228,"RA_OF_ASC_NODE":357.7902,"ARG_OF_PERICENTER":81.5523,"MEAN_ANOMALY":278.5908,"EPHEMERIS_TYPE":0,"CLASSIFICATION_TYPE":"U","NORAD_CAT_ID":55152,"ELEMENT_SET_NO":999,"REV_AT_EPOCH":15488,"BSTAR":-6.459741e-6,"MEAN_MOTION_DOT":1.0e-7,"MEAN_MOTION_DDOT":0},{"OBJECT_NAME":"ONEWEB-0588","OBJECT_ID":"2023-004P","EPOCH":"2026-02-25T02:44:10.984128","MEAN_MOTION":13.18690997,"ECCENTRICITY":0.0002372,"INCLINATION":87.9233,"RA_OF_ASC_NODE":357.7315,"ARG_OF_PERICENTER":75.0786,"MEAN_ANOMALY":285.0609,"EPHEMERIS_TYPE":0,"CLASSIFICATION_TYPE":"U","NORAD_CAT_ID":55153,"ELEMENT_SET_NO":999,"REV_AT_EPOCH":15492,"BSTAR":-0.0025834,"MEAN_MOTION_DOT":-1.006e-5,"MEAN_MOTION_DDOT":0},{"OBJECT_NAME":"ONEWEB-0598","OBJECT_ID":"2023-004Q","EPOCH":"2026-02-24T16:46:17.239296","MEAN_MOTION":13.11417904,"ECCENTRICITY":0.00022183,"INCLINATION":87.8839,"RA_OF_ASC_NODE":43.4433,"ARG_OF_PERICENTER":100.2992,"MEAN_ANOMALY":259.8386,"EPHEMERIS_TYPE":0,"CLASSIFICATION_TYPE":"U","NORAD_CAT_ID":55154,"ELEMENT_SET_NO":999,"REV_AT_EPOCH":15115,"BSTAR":-0.00051560544,"MEAN_MOTION_DOT":-1.7e-6,"MEAN_MOTION_DDOT":0},{"OBJECT_NAME":"ONEWEB-0599","OBJECT_ID":"2023-004R","EPOCH":"2026-02-25T04:06:07.545888","MEAN_MOTION":13.17654223,"ECCENTRICITY":0.0001825,"INCLINATION":87.9122,"RA_OF_ASC_NODE":28.1123,"ARG_OF_PERICENTER":89.8228,"MEAN_ANOMALY":270.3112,"EPHEMERIS_TYPE":0,"CLASSIFICATION_TYPE":"U","NORAD_CAT_ID":55155,"ELEMENT_SET_NO":999,"REV_AT_EPOCH":15273,"BSTAR":-0.0028971,"MEAN_MOTION_DOT":-1.112e-5,"MEAN_MOTION_DDOT":0},{"OBJECT_NAME":"ONEWEB-0614","OBJECT_ID":"2023-004S","EPOCH":"2026-02-24T22:08:33.497088","MEAN_MOTION":13.1141753,"ECCENTRICITY":0.0001987,"INCLINATION":87.8838,"RA_OF_ASC_NODE":43.4072,"ARG_OF_PERICENTER":75.891,"MEAN_ANOMALY":284.2438,"EPHEMERIS_TYPE":0,"CLASSIFICATION_TYPE":"U","NORAD_CAT_ID":55156,"ELEMENT_SET_NO":999,"REV_AT_EPOCH":15112,"BSTAR":-0.0013543,"MEAN_MOTION_DOT":-4.67e-6,"MEAN_MOTION_DDOT":0},{"OBJECT_NAME":"ONEWEB-0616","OBJECT_ID":"2023-004T","EPOCH":"2026-02-24T16:21:27.415584","MEAN_MOTION":13.17649386,"ECCENTRICITY":0.00012587,"INCLINATION":87.9135,"RA_OF_ASC_NODE":28.2088,"ARG_OF_PERICENTER":111.3329,"MEAN_ANOMALY":248.7937,"EPHEMERIS_TYPE":0,"CLASSIFICATION_TYPE":"U","NORAD_CAT_ID":55157,"ELEMENT_SET_NO":999,"REV_AT_EPOCH":15288,"BSTAR":0.00032408534,"MEAN_MOTION_DOT":1.39e-6,"MEAN_MOTION_DDOT":0},{"OBJECT_NAME":"ONEWEB-0617","OBJECT_ID":"2023-004U","EPOCH":"2026-02-24T12:42:07.580160","MEAN_MOTION":13.11415038,"ECCENTRICITY":0.0002174,"INCLINATION":87.8843,"RA_OF_ASC_NODE":43.4684,"ARG_OF_PERICENTER":80.6902,"MEAN_ANOMALY":279.4471,"EPHEMERIS_TYPE":0,"CLASSIFICATION_TYPE":"U","NORAD_CAT_ID":55158,"ELEMENT_SET_NO":999,"REV_AT_EPOCH":15109,"BSTAR":-0.0013636,"MEAN_MOTION_DOT":-4.71e-6,"MEAN_MOTION_DDOT":0},{"OBJECT_NAME":"ONEWEB-0618","OBJECT_ID":"2023-004V","EPOCH":"2026-02-25T04:27:25.989408","MEAN_MOTION":15.11775122,"ECCENTRICITY":0.0012344,"INCLINATION":86.9059,"RA_OF_ASC_NODE":223.0499,"ARG_OF_PERICENTER":0.2481,"MEAN_ANOMALY":359.8762,"EPHEMERIS_TYPE":0,"CLASSIFICATION_TYPE":"U","NORAD_CAT_ID":55159,"ELEMENT_SET_NO":999,"REV_AT_EPOCH":16533,"BSTAR":0.00027857,"MEAN_MOTION_DOT":4.791e-5,"MEAN_MOTION_DDOT":0},{"OBJECT_NAME":"ONEWEB-0619","OBJECT_ID":"2023-004W","EPOCH":"2026-02-25T04:03:43.182720","MEAN_MOTION":13.1764812,"ECCENTRICITY":0.0001572,"INCLINATION":87.9135,"RA_OF_ASC_NODE":28.085,"ARG_OF_PERICENTER":72.8887,"MEAN_ANOMALY":287.2417,"EPHEMERIS_TYPE":0,"CLASSIFICATION_TYPE":"U","NORAD_CAT_ID":55160,"ELEMENT_SET_NO":999,"REV_AT_EPOCH":15284,"BSTAR":0.00010181,"MEAN_MOTION_DOT":5.2e-7,"MEAN_MOTION_DDOT":0},{"OBJECT_NAME":"ONEWEB-0620","OBJECT_ID":"2023-004X","EPOCH":"2026-02-24T16:14:32.927136","MEAN_MOTION":13.11416026,"ECCENTRICITY":0.00021625,"INCLINATION":87.8835,"RA_OF_ASC_NODE":43.4559,"ARG_OF_PERICENTER":87.9134,"MEAN_ANOMALY":272.2242,"EPHEMERIS_TYPE":0,"CLASSIFICATION_TYPE":"U","NORAD_CAT_ID":55161,"ELEMENT_SET_NO":999,"REV_AT_EPOCH":15108,"BSTAR":-0.0015565637,"MEAN_MOTION_DOT":-5.39e-6,"MEAN_MOTION_DDOT":0},{"OBJECT_NAME":"ONEWEB-0621","OBJECT_ID":"2023-004Y","EPOCH":"2026-02-24T22:23:14.435808","MEAN_MOTION":13.11417869,"ECCENTRICITY":0.0001848,"INCLINATION":87.8847,"RA_OF_ASC_NODE":43.3829,"ARG_OF_PERICENTER":77.9679,"MEAN_ANOMALY":282.1656,"EPHEMERIS_TYPE":0,"CLASSIFICATION_TYPE":"U","NORAD_CAT_ID":55162,"ELEMENT_SET_NO":999,"REV_AT_EPOCH":15109,"BSTAR":0.00029158,"MEAN_MOTION_DOT":1.16e-6,"MEAN_MOTION_DDOT":0},{"OBJECT_NAME":"ONEWEB-0622","OBJECT_ID":"2023-004Z","EPOCH":"2026-02-24T22:30:33.898176","MEAN_MOTION":13.1141775,"ECCENTRICITY":0.0002423,"INCLINATION":87.884,"RA_OF_ASC_NODE":43.385,"ARG_OF_PERICENTER":71.9488,"MEAN_ANOMALY":288.1904,"EPHEMERIS_TYPE":0,"CLASSIFICATION_TYPE":"U","NORAD_CAT_ID":55163,"ELEMENT_SET_NO":999,"REV_AT_EPOCH":15108,"BSTAR":0.0011543,"MEAN_MOTION_DOT":4.22e-6,"MEAN_MOTION_DDOT":0},{"OBJECT_NAME":"ONEWEB-0623","OBJECT_ID":"2023-004AA","EPOCH":"2026-02-25T03:56:25.908864","MEAN_MOTION":13.17648302,"ECCENTRICITY":0.0002037,"INCLINATION":87.9123,"RA_OF_ASC_NODE":28.129,"ARG_OF_PERICENTER":61.2755,"MEAN_ANOMALY":298.8581,"EPHEMERIS_TYPE":0,"CLASSIFICATION_TYPE":"U","NORAD_CAT_ID":55164,"ELEMENT_SET_NO":999,"REV_AT_EPOCH":15283,"BSTAR":1.5242e-5,"MEAN_MOTION_DOT":1.9e-7,"MEAN_MOTION_DDOT":0},{"OBJECT_NAME":"ONEWEB-0624","OBJECT_ID":"2023-004AB","EPOCH":"2026-02-24T09:43:43.852224","MEAN_MOTION":13.12923036,"ECCENTRICITY":0.00019069,"INCLINATION":87.8976,"RA_OF_ASC_NODE":12.9894,"ARG_OF_PERICENTER":75.0933,"MEAN_ANOMALY":285.0407,"EPHEMERIS_TYPE":0,"CLASSIFICATION_TYPE":"U","NORAD_CAT_ID":55165,"ELEMENT_SET_NO":999,"REV_AT_EPOCH":15327,"BSTAR":0.0012930194,"MEAN_MOTION_DOT":4.81e-6,"MEAN_MOTION_DDOT":0},{"OBJECT_NAME":"ONEWEB-0625","OBJECT_ID":"2023-004AC","EPOCH":"2026-02-24T20:24:27.746496","MEAN_MOTION":13.17648826,"ECCENTRICITY":0.0001713,"INCLINATION":87.9124,"RA_OF_ASC_NODE":28.1851,"ARG_OF_PERICENTER":86.0694,"MEAN_ANOMALY":274.0634,"EPHEMERIS_TYPE":0,"CLASSIFICATION_TYPE":"U","NORAD_CAT_ID":55166,"ELEMENT_SET_NO":999,"REV_AT_EPOCH":15278,"BSTAR":0.00017184845,"MEAN_MOTION_DOT":8.0e-7,"MEAN_MOTION_DDOT":0},{"OBJECT_NAME":"ONEWEB-0626","OBJECT_ID":"2023-004AD","EPOCH":"2026-02-24T21:59:13.669152","MEAN_MOTION":13.17647762,"ECCENTRICITY":0.0002275,"INCLINATION":87.912,"RA_OF_ASC_NODE":28.1728,"ARG_OF_PERICENTER":92.4064,"MEAN_ANOMALY":267.7328,"EPHEMERIS_TYPE":0,"CLASSIFICATION_TYPE":"U","NORAD_CAT_ID":55167,"ELEMENT_SET_NO":999,"REV_AT_EPOCH":15279,"BSTAR":0.00014224,"MEAN_MOTION_DOT":6.8e-7,"MEAN_MOTION_DDOT":0}]
