ONEWEB-0572             
1 55151U 23004M   26055.45037731  .00000099  00000+0  22216-3 0  9997
2 55151  87.9122  28.2567 0002080  84.6829 275.4540 13.17650394152638
ONEWEB-0573             
1 55152U 23004N   26055.81713096  .00000010  00000+0 -64597-5 0  9997
2 55152  87.9228 357.7902 0002643  81.5523 278.5908 13.18685121154889
ONEWEB-0588             
1 55153U 23004P   26056.11401602 -.00001006  00000+0 -25834-2 0  9994
2 55153  87.9233 357.7315 0002372  75.0786 285.0609 13.18690997154925
ONEWEB-0598             
1 55154U 23004Q   26055.69881064 -.00000170  00000+0 -51561-3 0  9999
2 55154  87.8839  43.4433 0002218 100.2992 259.8386 13.11417904151157
ONEWEB-0599             
1 55155U 23004R   26056.17092067 -.00001112  00000+0 -28971-2 0  9996
2 55155  87.9122  28.1123 0001825  89.8228 270.3112 13.17654223152730
ONEWEB-0614             
1 55156U 23004S   26055.92260992 -.00000467  00000+0 -13543-2 0  9994
2 55156  87.8838  43.4072 0001987  75.8910 284.2438 13.11417530151128
ONEWEB-0616             
1 55157U 23004T   26055.68156731  .00000139  00000+0  32409-3 0  9990
2 55157  87.9135  28.2088 0001258 111.3329 248.7937 13.17649386152884
ONEWEB-0617             
1 55158U 23004U   26055.52925440 -.00000471  00000+0 -13636-2 0  9996
2 55158  87.8843  43.4684 0002174  80.6902 279.4471 13.11415038151099
ONEWEB-0618             
1 55159U 23004V   26056.18571747  .00004791  00000+0  27857-3 0  9995
2 55159  86.9059 223.0499 0012344   0.2481 359.8762 15.11775122165332
ONEWEB-0619             
1 55160U 23004W   26056.16924980  .00000052  00000+0  10181-3 0  9994
2 55160  87.9135  28.0850 0001572  72.8887 287.2417 13.17648120152844
ONEWEB-0620             
1 55161U 23004X   26055.67676999 -.00000539  00000+0 -15566-2 0  9997
2 55161  87.8835  43.4559 0002162  87.9134 272.2242 13.11416026151083
ONEWEB-0621             
1 55162U 23004Y   26055.93280597  .00000116  00000+0  29158-3 0  9994
2 55162  87.8847  43.3829 0001848  77.9679 282.1656 13.11417869151095
ONEWEB-0622             
1 55163U 23004Z   26055.93789234  .00000422  00000+0  11543-2 0  9995
2 55163  87.8840  43.3850 0002423  71.9488 288.1904 13.11417750151085
ONEWEB-0623             
1 55164U 23004AA  26056.16418876  .00000019  00000+0  15242-4 0  9997
2 55164  87.9123  28.1290 0002037  61.2755 298.8581 13.17648302152838
ONEWEB-0624             
1 55165U 23004AB  26055.40536866  .00000481  00000+0  12930-2 0  9996
2 55165  87.8976  12.9894 0001906  75.0933 285.0407 13.12923036153279
ONEWEB-0625             
1 55166U 23004AC  26055.85032114  .00000080  00000+0  17185-3 0  9996
2 55166  87.9124  28.1851 0001713  86.0694 274.0634 13.17648826152781
ONEWEB-0626             
1 55167U 23004AD  26055.91613043  .00000068  00000+0  14224-3 0  9997
2 55167  87.9120  28.1728 0002275  92.4064 267.7328 13.17647762152795
